[{"OBJECT_NAME":"CSG-1","OBJECT_ID":"2019-092A","EPOCH":"2026-03-09T22:42:03.650112","MEAN_MOTION":14.82148881,"ECCENTRICITY":0.00014012,"INCLINATION":97.8868,"RA_OF_ASC_NODE":253.98,"ARG_OF_PERICENTER":84.9007,"MEAN_ANOMALY":275.2366,"EPHEMERIS_TYPE":0,"CLASSIFICATION_TYPE":"U","NORAD_CAT_ID":44873,"ELEMENT_SET_NO":999,"REV_AT_EPOCH":33677,"BSTAR":0.00010295004,"MEAN_MOTION_DOT":7.67e-6,"MEAN_MOTION_DDOT":0},{"OBJECT_NAME":"SL-14 R\/B","OBJECT_ID":"1988-020B","EPOCH":"2026-03-09T19:49:17.973408","MEAN_MOTION":14.85675832,"ECCENTRICITY":0.00173203,"INCLINATION":82.5398,"RA_OF_ASC_NODE":169.5193,"ARG_OF_PERICENTER":58.4378,"MEAN_ANOMALY":301.8526,"EPHEMERIS_TYPE":0,"CLASSIFICATION_TYPE":"U","NORAD_CAT_ID":18959,"ELEMENT_SET_NO":999,"REV_AT_EPOCH":3218,"BSTAR":6.8077361e-5,"MEAN_MOTION_DOT":6.16e-6,"MEAN_MOTION_DDOT":0}]
